76P/West-Kohoutek-Ikemura,e,30.4853,84.1090,359.9468,3.469364,0.1525209,0.53919997,233.4704,01/05.0/2024,2000,g  8.0,12.0
# From MPEC 2023-TM6
77P/Longmore,e,24.3184,14.7647,196.6957,3.622608,0.1429460,0.35170887,39.5963,01/05.0/2024,2000,g  7.0,8.0
# From MPEC 2021-O56
78P/Gehrels,e,6.2569,210.5317,192.6759,3.735797,0.1364989,0.46315907,236.8910,01/05.0/2024,2000,g  5.5,8.0
# From MPC 94675
79P/du Toit-Hartley,e,3.1488,281.7710,280.5306,2.944063,0.1951118,0.61922618,18.8566,01/05.0/2024,2000,g 16.0,4.0
# From MPEC 2023-RF3
80P/Peters-Hartley,e,29.9231,259.7885,339.2621,4.022735,0.1221580,0.59832429,47.9089,01/05.0/2024,2000,g  9.0,8.0
# From MPEC 2023-W26
81P/Wild,e,3.2367,136.0941,41.5977,3.453120,0.1535984,0.53724982,59.1998,01/05.0/2024,2000,g  7.0,6.0
# From MPC133426
82P/Gehrels,e,1.1291,239.2391,226.4068,4.132413,0.1173271,0.12237694,237.2600,01/05.0/2024,2000,g 15.0,4.0
# From NK 932
83D/Russell,e,17.8254,226.3084,334.4387,3.843956,0.1307786,0.44144482,125.2011,01/05.0/2024,2000,g  9.0,4.0
# From MPEC 2020-FB5
84P/Giclas,e,7.5510,108.1665,281.6374,3.550065,0.1473498,0.51606381,192.9075,01/05.0/2024,2000,g  9.5,8.0
# From unp
85D/Boethin,e,4.1742,65.2842,333.0651,5.043711,0.0870119,0.77632732,109.0912,01/05.0/2024,2000,g  6.5,8.0
# From MPEC 2022-YB4
86P/Wild,e,15.5009,72.1629,180.2594,3.617468,0.1432508,0.37155097,99.5850,01/05.0/2024,2000,g 11.0,6.0
# From MPEC 2020-SI8
87P/Bus,e,2.7751,187.4619,50.3192,4.247805,0.1125789,0.24896424,150.0629,01/05.0/2024,2000,g  7.2,10.0
# From MPEC 2023-J29
88P/Howell,e,4.3819,56.6654,235.9255,3.107019,0.1799650,0.56327947,215.3240,01/05.0/2024,2000,g 11.0,6.0
# From MPEC 2023-J29
89P/Russell,e,12.0721,41.3462,250.4007,3.752113,0.1356095,0.40784304,348.9335,01/05.0/2024,2000,g 11.5,6.0
# From MPEC 2022-K19
90P/Gehrels,e,9.6493,13.2177,29.0982,6.051808,0.0662028,0.51114982,158.0123,01/05.0/2024,2000,g  8.5,6.0
# From MPEC 2023-VM5
91P/Russell,e,15.4387,243.7546,358.6846,3.903354,0.1278048,0.33342130,147.3487,01/05.0/2024,2000,g  7.5,6.0
# From MPEC 2014-J58
92P/Sanguin,e,19.4970,181.3782,163.8022,5.342797,0.0798088,0.66061732,257.3079,01/05.0/2024,2000,g 12.0,6.0
# From NK 2707
93P/Lovas,e,12.2045,339.5903,74.9284,4.377657,0.1076073,0.61396133,268.6625,01/05.0/2024,2000,g  9.0,4.0
# From MPEC 2023_O39
94P/Russell,e,6.1879,70.8520,92.4085,3.510578,0.1498429,0.36564715,34.3063,01/05.0/2024,2000,g  9.0,6.0
# From MPC 75717
95P/Chiron,e,6.9224,209.1995,339.4276,13.71129,0.0194127,0.37663921,199.2457,01/05.0/2024,2000,g  6.5,2.0
# From MPEC 2023-N01
96P/Machholz,e,57.5341,93.9538,14.7436,3.030765,0.1867995,0.96161330,63.3069,01/05.0/2024,2000,g 13.0,4.8
# From MPC106348
96P-B/Machholz,e,57.5050,14.7289,93.9499,3.030183,0.1868533,0.96161576,63.3255,01/05.0/2024,2000,g 13.0,4.8
# From MPC103849
96P-C/Machholz,e,58.5311,94.3495,15.5380,3.011920,0.1885553,0.95889850,359.8715,07/14.0/2012,2000,g  9.0,4.0
# From MPEC 2022-C56
97P/Metcalf-Brewington,e,17.9492,184.1186,230.0415,4.765616,0.0947383,0.46030830,65.1867,01/05.0/2024,2000,g  5.5,6.0
# From MPEC 2021-W31
98P/Takamizawa,e,10.5682,114.6455,157.7420,3.790597,0.1335496,0.56249825,146.3538,01/05.0/2024,2000,g  9.0,8.0
# From MPEC 2024-A43
99P/Kowal,e,4.3395,28.0964,174.6999,6.097811,0.0654550,0.22853989,41.5367,01/05.0/2024,2000,g  4.5,6.0
# From MPEC 2023-OA6
100P/Hartley,e,25.5672,37.6860,181.9625,3.430552,0.1551165,0.41174286,79.4456,01/05.0/2024,2000,g  9.0,8.0
# From MPEC 2022-K19
101P/Chernykh,e,5.0495,116.2425,277.7903,5.812654,0.0703303,0.59630803,102.1575,01/05.0/2024,2000,g 10.0,4.8
# From MPC105241
101P-B/Chernykh,e,5.0499,278.5606,115.4748,5.828138,0.0700502,0.59651943,100.5051,01/05.0/2024,2000,g  9.0,4.0
# From MPEC 2022-C56
102P/Shoemaker,e,25.8739,339.4115,20.6562,3.818132,0.1321075,0.45672567,142.3433,01/05.0/2024,2000,g  6.5,8.0
# From MPEC 2024-A43
103P/Hartley,e,13.6107,219.7496,181.2995,3.474665,0.1521720,0.69375893,12.8571,01/05.0/2024,2000,g  8.5,8.0
# From MPEC 2023-G31
104P/Kowal,e,5.7032,207.2084,227.2541,3.208642,0.1714834,0.66583755,124.0054,01/05.0/2024,2000,g 16.0,4.0
# From MPEC 2024-A43
105P/SingerBrewster,e,9.1683,192.3969,46.3731,3.471081,0.1524077,0.40887419,301.4942,01/05.0/2024,2000,g 11.5,6.0
# From MPEC 2023-UR6
106P/Schuster,e,19.5406,48.8620,353.7614,3.766780,0.1348182,0.59393965,117.1522,01/05.0/2024,2000,g 14.0,4.8
# From MPEC 2015-M77
107P/Wilson-Harrington,e,2.7987,266.7566,95.4853,2.625110,0.2317303,0.63147549,115.4915,01/05.0/2024,2000,g  9.0,4.0
# From MPEC 2022-P82
108P/Ciffreo,e,11.4363,50.2974,354.4921,3.742249,0.1361460,0.55609721,115.2650,01/05.0/2024,2000,g  8.0,12.0
# From  105, 420
109P/Swift-Tuttle,e,113.5268,139.3968,153.1932,26.21124,0.0073447,0.96255058,83.2884,01/05.0/2024,2000,g  4.0,6.0
# From MPEC 2023-KD6
110P/Hartley,e,11.7067,287.4960,167.4919,3.603930,0.1440587,0.31894926,116.4510,01/05.0/2024,2000,g  1.0,12.0
# From MPC 75718
111P/Helin-Roman-Crockett,e,4.2258,89.8149,1.1712,4.151969,0.1164992,0.10708538,108.5098,01/05.0/2024,2000,g  5.0,8.0
# From MPEC 2021-S45
112P/Urata-Niijima,e,24.2107,31.8357,21.4917,3.523771,0.1490022,0.59081328,212.4020,01/05.0/2024,2000,g 14.0,6.0
# From MPEC 2023-VM5
113P/Spitaler,e,5.2880,306.6629,115.6145,3.693900,0.1388278,0.41995226,80.8429,01/05.0/2024,2000,g 13.5,4.0
# From MPEC 2023-A50
114P/Wiseman-Skiff,e,18.2990,271.0232,172.7601,3.541881,0.1478608,0.55585284,214.5101,01/05.0/2024,2000,g 11.5,6.0
# From MPEC 2023-J29
115P/Maury,e,11.6770,176.0136,120.9789,4.272220,0.1116153,0.51759905,140.1456,01/05.0/2024,2000,g 10.5,6.0
# From MPEC 2023-VM5
116P/Wild,e,3.6034,20.9731,173.2155,3.487890,0.1513073,0.37031618,81.2998,01/05.0/2024,2000,g  2.5,10.0
# From MPEC 2024-A43
117P/Helin-Roman-Alu,e,8.7053,58.8156,223.3913,4.091223,0.1191035,0.25605423,64.8234,01/05.0/2024,2000,g  2.5,8.0
# From MPEC 2023-XP6
118P/Shoemaker-Levy,e,10.0904,142.0886,314.8746,3.348019,0.1608875,0.45367998,65.4120,01/05.0/2024,2000,g 12.0,4.0
# From MPEC 2024-A43
119P/Parker-Hartley,e,7.3923,104.5613,322.1569,3.806962,0.1326894,0.38837471,67.7705,01/05.0/2024,2000,g  3.5,8.0
# From MPEC 2022-CN4
120P/Mueller,e,8.4876,358.7242,36.6971,3.967569,0.1247146,0.37476920,121.2492,01/05.0/2024,2000,g 12.0,4.0
# From MPEC 2024-A43
121P/Shoemaker-Holt,e,20.1632,94.1130,11.7209,4.585313,0.1003808,0.18644023,19.0572,01/05.0/2024,2000,g  6.5,8.0
# From MPC 75718
122P/de Vico,e,85.8908,79.7174,12.9912,17.62713,0.0133178,0.96243610,137.6727,01/05.0/2024,2000,g  7.5,5.2
# From MPEC 2021-F20
123P/West-Hartley,e,15.2795,45.9046,104.0309,3.881281,0.1288966,0.44428225,232.1629,01/05.0/2024,2000,g 12.2,4.0
# From MPEC 2023-T65
124P/Mrkos,e,31.4686,0.0819,185.1975,3.372333,0.1591507,0.48703032,216.6418,01/05.0/2024,2000,g 13.5,2.8
# From MPEC 2023-XP6
125P/Spacewatch,e,9.9849,153.1515,87.1405,3.129315,0.1780452,0.51213350,348.9083,01/05.0/2024,2000,g 13.0,6.0
# From MPEC 2024-A43
126P/IRAS,e,45.8709,357.8655,356.5851,5.635662,0.0736693,0.69650106,13.5330,01/05.0/2024,2000,g  6.0,8.0
# From MPEC 2024-A43
127P/Holt-Olmstead,e,14.3008,13.6068,6.2983,3.452614,0.1536321,0.35933240,78.7494,01/05.0/2024,2000,g 11.0,6.0
# From MPC 89014
128P/Shoemaker-Holt,e,4.3704,214.3413,210.3390,4.485888,0.1037365,0.32232077,264.2199,01/05.0/2024,2000,g  8.5,4.0
# From MPEC 2023-M14
129P/Shoemaker-Levy,e,3.4423,184.8609,307.5154,4.291193,0.1108759,0.08548631,44.3904,01/05.0/2024,2000,g 11.0,4.0
# From MPEC 2023-M14
130P/McNaught-Hughes,e,6.0636,70.1786,246.1240,3.381588,0.1584977,0.46090607,344.0117,01/05.0/2024,2000,g 10.0,6.0
# From MPC102101
131P/Mueller,e,7.3607,214.1782,179.1060,3.677303,0.1397687,0.34491195,252.0621,01/05.0/2024,2000,g 11.0,4.0
# From MPEC 2022-TD3
132P/Helin-Roman-Alu,e,5.3820,174.0325,216.4069,3.890115,0.1284578,0.56462558,100.5502,01/05.0/2024,2000,g 11.0,6.0
# From MPC 94676
133P/Elst-Pizarro,e,1.3897,160.1020,131.9167,3.164740,0.1750641,0.15610637,337.8849,01/05.0/2024,2000,g 15.4,2.0
# From MPC 89012
134P/Kowal-Vavrova,e,4.3350,202.0124,18.7908,6.266838,0.0628248,0.58506151,221.8042,01/05.0/2024,2000,g 11.5,4.0
# From MPEC 2022-OB6
135P/Shoemaker-Levy,e,6.0638,213.0197,22.3835,3.800242,0.1330415,0.29433493,84.8327,01/05.0/2024,2000,g  7.0,8.0
# From MPEC 2022-K19
136P/Mueller,e,9.4275,137.4974,225.1419,4.186701,0.1150525,0.29330100,318.1013,01/05.0/2024,2000,g 11.0,4.0
# From MPEC 2023-J29
137P/Shoemaker-Levy,e,4.8601,232.9276,141.2104,4.522196,0.1024897,0.57365123,189.2602,01/05.0/2024,2000,g 11.0,4.0
# From MPEC 2016-U66
138P/Shoemaker-Levy,e,10.0952,309.2968,95.6131,3.619150,0.1431509,0.53160425,244.1717,01/05.0/2024,2000,g 15.0,6.0
# From MPEC 2020-HN5
139P/Vaisala-Oterma,e,2.3372,242.1796,165.8245,4.516492,0.1026839,0.24829411,227.1450,01/05.0/2024,2000,g  9.5,4.0
# From MPEC 2015-E14
140P/Bowell-Skiff,e,3.8029,343.3083,172.4259,6.405939,0.0607897,0.69597758,187.4498,01/05.0/2024,2000,g 11.5,6.0
# From MPEC 2022-K19
141P/Machholz,e,13.9545,241.8110,153.5987,3.057563,0.1843491,0.73609629,205.3737,01/05.0/2024,2000,g 12.0,12.0
# From MPEC 2015-KD9
141P-A/Machholz,e,13.9441,153.5598,241.8638,3.057698,0.1843369,0.73609167,205.3275,01/05.0/2024,2000,g 12.0,12.0
# From MPC 24216
141P-B/Machholz,e,13.9880,153.6354,241.7531,3.056089,0.1844824,0.73584943,206.6767,01/05.0/2024,2000,g  9.0,4.0
# From MPC 37026
141P-D/Machholz,e,13.8362,153.2868,242.1114,3.066145,0.1835756,0.73704715,201.3356,01/05.0/2024,2000,g  9.0,4.0
# From MPEC 2015-R12
141P-E/Machholz,e,12.8152,246.1856,149.2667,3.012914,0.1884620,0.75023267,359.9529,09/19.0/1994,2000,g  9.0,4.0
# From MPEC 2015-R12
141P-F/Machholz,e,12.7898,246.1881,149.2374,3.010224,0.1887147,0.75000946,359.9630,09/19.0/1994,2000,g  9.0,4.0
# From MPEC 2015-R12
141P-G/Machholz,e,12.8259,246.3146,149.0784,3.005818,0.1891298,0.74964304,359.9802,09/19.0/1994,2000,g  9.0,4.0
# From MPC 95735
141P-H/Machholz,e,12.8431,246.0900,149.4500,3.008012,0.1889230,0.74682218,359.9270,08/24.0/2015,2000,g 18.5,4.0
# From MPEC 2022-SU8
141P-I/Machholz,e,13.9440,153.5140,241.8741,3.048180,0.1852009,0.73531692,206.4029,01/05.0/2024,2000,g 17.5,4.0
